H1 CPF  1  DLR 2021 08 08 10  7202 technosat            
H2  1704205 6203    42829 2021 08 08 00 00 00 2021 08 15 00 00 00    60 1 1  0 0 0
H9
10 0 59439  21600.000000  0      -5170786.842      -4526047.492       1234398.840
10 0 59439  21660.000000  0      -5278873.784      -4500967.916        789964.196
10 0 59439  21720.000000  0      -5364480.437      -4456133.735        342186.837
10 0 59439  21780.000000  0      -5427076.141      -4391932.439       -107038.552
10 0 59439  21840.000000  0      -5466231.424      -4308837.691       -555811.159
10 0 59439  21900.000000  0      -5481620.578      -4207406.420      -1002232.309
10 0 59439  21960.000000  0      -5473023.718      -4088275.480      -1444413.720
10 0 59439  22020.000000  0      -5440328.306      -3952157.910      -1880485.673
10 0 59439  22080.000000  0      -5383530.130      -3799838.861      -2308605.023
10 0 59439  22140.000000  0      -5302733.828      -3632171.261      -2726963.085
10 0 59439  22200.000000  0      -5198152.851      -3450071.133      -3133793.359
10 0 59439  22260.000000  0      -5070108.935      -3254512.663      -3527378.995
10 0 59439  22320.000000  0      -4919031.095      -3046523.057      -3906060.039
10 0 59439  22380.000000  0      -4745454.081      -2827177.167      -4268240.422
10 0 59439  22440.000000  0      -4550016.329      -2597591.950      -4612394.604
10 0 59439  22500.000000  0      -4333457.454      -2358920.792      -4937073.878
10 0 59439  22560.000000  0      -4096615.278      -2112347.741      -5240912.322
10 0 59439  22620.000000  0      -3840422.433      -1859081.633      -5522632.380
10 0 59439  22680.000000  0      -3565902.536      -1600350.168      -5781050.017
10 0 59439  22740.000000  0      -3274165.969      -1337393.991      -6015079.462
10 0 59439  22800.000000  0      -2966405.292      -1071460.769      -6223737.556
10 0 59439  22860.000000  0      -2643890.278       -803799.326      -6406147.647
10 0 59439  22920.000000  0      -2307962.596       -535653.846      -6561543.050
10 0 59439  22980.000000  0      -1960030.179       -268258.171      -6689270.022
10 0 59439  23040.000000  0      -1601561.355         -2830.225      -6788790.236
10 0 59439  23100.000000  0      -1234078.782        259433.373      -6859682.893
10 0 59439  23160.000000  0       -859153.108        517362.615      -6901646.473
10 0 59439  23220.000000  0       -478396.336        769819.288      -6914499.976
10 0 59439  23280.000000  0        -93455.047       1015701.923      -6898183.622
10 0 59439  23340.000000  0        293996.510       1253950.456      -6852759.196
10 0 59439  23400.000000  0        682263.540       1483550.738      -6778410.111
10 0 59439  23460.000000  0       1069638.142       1703538.932      -6675440.873
10 0 59439  23520.000000  0       1454406.741       1913005.564      -6544275.881
10 0 59439  23580.000000  0       1834857.508       2111099.284      -6385457.951
10 0 59439  23640.000000  0       2209288.021       2297030.422      -6199646.409
10 0 59439  23700.000000  0       2576012.914       2470074.206      -5987614.524
10 0 59439  23760.000000  0       2933371.395       2629573.628      -5750246.546
10 0 59439  23820.000000  0       3279734.777       2774942.037      -5488534.389
10 0 59439  23880.000000  0       3613514.045       2905665.423      -5203573.879
10 0 59439  23940.000000  0       3933167.360       3021304.387      -4896560.430
10 0 59439  24000.000000  0       4237207.350       3121495.711      -4568784.267
10 0 59439  24060.000000  0       4524208.319       3205953.574      -4221625.251
10 0 59439  24120.000000  0       4792813.196       3274470.353      -3856547.162
10 0 59439  24180.000000  0       5041740.161       3326917.056      -3475091.649
10 0 59439  24240.000000  0       5269789.029       3363243.397      -3078871.841
10 0 59439  24300.000000  0       5475847.342       3383477.518      -2669565.579
10 0 59439  24360.000000  0       5658896.143       3387725.295      -2248908.221
10 0 59439  24420.000000  0       5818015.261       3376169.164      -1818685.130
10 0 59439  24480.000000  0       5952388.151       3349066.587      -1380723.946
10 0 59439  24540.000000  0       6061306.238       3306748.151       -936886.625
10 0 59439  24600.000000  0       6144172.812       3249615.313       -489061.292
10 0 59439  24660.000000  0       6200506.366       3178137.717        -39153.880
10 0 59439  24720.000000  0       6229943.365       3092850.147        410920.272
10 0 59439  24780.000000  0       6232240.423       2994349.167        859244.888
10 0 59439  24840.000000  0       6207275.856       2883289.521       1303911.210
10 0 59439  24900.000000  0       6155050.667       2760380.262       1743026.437
10 0 59439  24960.000000  0       6075688.948       2626380.580       2174722.099
10 0 59439  25020.000000  0       5969437.668       2482095.370       2597162.331
10 0 59439  25080.000000  0       5836665.776       2328370.563       3008551.948
10 0 59439  25140.000000  0       5677862.699       2166088.360       3407144.253
10 0 59439  25200.000000  0       5493636.296       1996162.302       3791248.619
10 0 59439  25260.000000  0       5284710.216       1819532.214       4159237.786
10 0 59439  25320.000000  0       5051920.631       1637159.051       4509554.719
10 0 59439  25380.000000  0       4796212.615       1450019.769       4840719.031
10 0 59439  25440.000000  0       4518636.095       1259102.165       5151333.265
10 0 59439  25500.000000  0       4220341.142       1065399.676       5440088.777
10 0 59439  25560.000000  0       3902572.803        869906.249       5705771.084
10 0 59439  25620.000000  0       3566665.489        673611.283       5947264.713
10 0 59439  25680.000000  0       3214037.090        477494.689       6163557.506
10 0 59439  25740.000000  0       2846182.830        282522.132       6353744.565
10 0 59439  25800.000000  0       2464668.776         89640.359       6517031.806
10 0 59439  25860.000000  0       2071125.043       -100227.324       6652738.997
10 0 59439  25920.000000  0       1667238.758       -286185.379       6760302.390
10 0 59439  25980.000000  0       1254746.720       -467370.212       6839276.896
10 0 59439  26040.000000  0        835427.816       -642954.135       6889337.640
10 0 59439  26100.000000  0        411095.406       -812149.047       6910281.051
10 0 59439  26160.000000  0        -16410.489       -974209.905       6902025.583
10 0 59439  26220.000000  0       -445231.109      -1128437.966       6864611.876
10 0 59439  26280.000000  0       -873496.945      -1274183.758       6798202.483
10 0 59439  26340.000000  0      -1299335.812      -1410849.771       6703081.095
10 0 59439  26400.000000  0      -1720880.879      -1537892.833       6579651.312
10 0 59439  26460.000000  0      -2136278.708      -1654826.193       6428434.997
10 0 59439  26520.000000  0      -2543697.249      -1761221.317       6250070.255
10 0 59439  26580.000000  0      -2941333.883      -1856709.447       6045309.045
10 0 59439  26640.000000  0      -3327423.524      -1940982.871       5815014.234
10 0 59439  26700.000000  0      -3700246.516      -2013795.885       5560156.055
10 0 59439  26760.000000  0      -4058136.295      -2074965.419       5281808.187
10 0 59439  26820.000000  0      -4399486.960      -2124371.363       4981143.450
10 0 59439  26880.000000  0      -4722760.605      -2161956.562       4659428.988
10 0 59439  26940.000000  0      -5026494.354      -2187726.466       4318021.061
10 0 59439  27000.000000  0      -5309307.108      -2201748.457       3958359.487
10 0 59439  27060.000000  0      -5569905.985      -2204150.876       3581961.715
10 0 59439  27120.000000  0      -5807092.417      -2195121.739       3190416.549
10 0 59439  27180.000000  0      -6019767.859      -2174907.174       2785377.561
10 0 59439  27240.000000  0      -6206939.143      -2143809.596       2368556.191
10 0 59439  27300.000000  0      -6367723.433      -2102185.573       1941714.471
10 0 59439  27360.000000  0      -6501352.586      -2050443.358       1506657.406
10 0 59439  27420.000000  0      -6607176.878      -1989040.170       1065225.224
10 0 59439  27480.000000  0      -6684668.279      -1918479.247        619285.535
10 0 59439  27540.000000  0      -6733423.223      -1839306.639        170725.283
10 0 59439  27600.000000  0      -6753164.735      -1752107.774       -278557.446
10 0 59439  27660.000000  0      -6743743.918      -1657503.852       -726661.648
10 0 59439  27720.000000  0      -6705140.838      -1556148.077      -1171691.614
10 0 59439  27780.000000  0      -6637464.811      -1448721.724      -1611765.122
10 0 59439  27840.000000  0      -6540954.046      -1335930.101      -2045021.527
10 0 59439  27900.000000  0      -6415974.706      -1218498.430      -2469629.744
10 0 59439  27960.000000  0      -6263019.376      -1097167.653      -2883796.103
10 0 59439  28020.000000  0      -6082704.907       -972690.160      -3285772.007
10 0 59439  28080.000000  0      -5875769.708       -845825.494      -3673861.341
10 0 59439  28140.000000  0      -5643070.483       -717336.057      -4046427.633
10 0 59439  28200.000000  0      -5385578.414       -587982.836      -4401900.914
10 0 59439  28260.000000  0      -5104374.840       -458521.178      -4738784.237
10 0 59439  28320.000000  0      -4800646.458       -329696.687      -5055659.847
10 0 59439  28380.000000  0      -4475680.079       -202241.194      -5351195.026
10 0 59439  28440.000000  0      -4130856.901        -76868.841      -5624147.498
10 0 59439  28500.000000  0      -3767646.441         45727.698      -5873370.385
10 0 59439  28560.000000  0      -3387600.112        164880.821      -6097816.768
10 0 59439  28620.000000  0      -2992344.515        279951.450      -6296543.793
10 0 59439  28680.000000  0      -2583574.475        390332.254      -6468716.408
10 0 59439  28740.000000  0      -2163045.736        495450.678      -6613610.704
99
